[Satellite]
VERSION=1.1
NAME=RADUGA 26 [-]
NICKNAME=RADUGA 26 [-]
TLE1=1 21016U 90112A   17184.02236713 -.00000066  00000-0  00000-0 0  9991
TLE2=2 21016  15.0121   5.8855 0002762 352.2900   1.0761  1.00224665 97435
